[{"OBJECT_NAME":"STARLINK-35305","OBJECT_ID":"2025-268E","EPOCH":"2026-02-09T08:00:13.349376","MEAN_MOTION":15.2761324,"ECCENTRICITY":0.0001267,"INCLINATION":43.0013,"RA_OF_ASC_NODE":147.1527,"ARG_OF_PERICENTER":247.7056,"MEAN_ANOMALY":112.3662,"EPHEMERIS_TYPE":0,"CLASSIFICATION_TYPE":"U","NORAD_CAT_ID":66561,"ELEMENT_SET_NO":999,"REV_AT_EPOCH":1362,"BSTAR":0.0013776,"MEAN_MOTION_DOT":0.00037879,"MEAN_MOTION_DDOT":0},{"OBJECT_NAME":"STARLINK-35579","OBJECT_ID":"2025-268F","EPOCH":"2026-02-09T14:22:23.254464","MEAN_MOTION":15.27599439,"ECCENTRICITY":0.0001198,"INCLINATION":43.0009,"RA_OF_ASC_NODE":145.7052,"ARG_OF_PERICENTER":262.2355,"MEAN_ANOMALY":97.836,"EPHEMERIS_TYPE":0,"CLASSIFICATION_TYPE":"U","NORAD_CAT_ID":66562,"ELEMENT_SET_NO":999,"REV_AT_EPOCH":1366,"BSTAR":0.00094467,"MEAN_MOTION_DOT":0.0002584,"MEAN_MOTION_DDOT":0},{"OBJECT_NAME":"STARLINK-35437","OBJECT_ID":"2025-268G","EPOCH":"2026-02-09T07:54:39.377952","MEAN_MOTION":15.27605409,"ECCENTRICITY":0.0002066,"INCLINATION":43.0008,"RA_OF_ASC_NODE":147.1236,"ARG_OF_PERICENTER":157.4859,"MEAN_ANOMALY":202.6084,"EPHEMERIS_TYPE":0,"CLASSIFICATION_TYPE":"U","NORAD_CAT_ID":66563,"ELEMENT_SET_NO":999,"REV_AT_EPOCH":1362,"BSTAR":0.0013156,"MEAN_MOTION_DOT":0.00036148,"MEAN_MOTION_DDOT":0},{"OBJECT_NAME":"STARLINK-35358","OBJECT_ID":"2025-268H","EPOCH":"2026-02-10T04:13:08.778720","MEAN_MOTION":15.27593052,"ECCENTRICITY":0.0001145,"INCLINATION":42.9991,"RA_OF_ASC_NODE":142.2918,"ARG_OF_PERICENTER":274.7688,"MEAN_ANOMALY":85.3032,"EPHEMERIS_TYPE":0,"CLASSIFICATION_TYPE":"U","NORAD_CAT_ID":66564,"ELEMENT_SET_NO":999,"REV_AT_EPOCH":1375,"BSTAR":0.00092511,"MEAN_MOTION_DOT":0.00025292,"MEAN_MOTION_DDOT":0},{"OBJECT_NAME":"STARLINK-35893","OBJECT_ID":"2025-268J","EPOCH":"2026-02-08T19:10:17.742144","MEAN_MOTION":15.27615591,"ECCENTRICITY":0.00023395,"INCLINATION":43.0012,"RA_OF_ASC_NODE":150.0179,"ARG_OF_PERICENTER":281.3986,"MEAN_ANOMALY":78.6603,"EPHEMERIS_TYPE":0,"CLASSIFICATION_TYPE":"U","NORAD_CAT_ID":66565,"ELEMENT_SET_NO":999,"REV_AT_EPOCH":1354,"BSTAR":0.00081499241,"MEAN_MOTION_DOT":0.00022257,"MEAN_MOTION_DDOT":0},{"OBJECT_NAME":"STARLINK-35871","OBJECT_ID":"2025-268K","EPOCH":"2026-02-08T14:24:07.536672","MEAN_MOTION":15.27616476,"ECCENTRICITY":0.0003186,"INCLINATION":43.0007,"RA_OF_ASC_NODE":151.1052,"ARG_OF_PERICENTER":283.8338,"MEAN_ANOMALY":76.2159,"EPHEMERIS_TYPE":0,"CLASSIFICATION_TYPE":"U","NORAD_CAT_ID":66566,"ELEMENT_SET_NO":999,"REV_AT_EPOCH":1351,"BSTAR":0.00076447,"MEAN_MOTION_DOT":0.00020859,"MEAN_MOTION_DDOT":0},{"OBJECT_NAME":"STARLINK-35825","OBJECT_ID":"2025-268L","EPOCH":"2026-02-09T07:34:17.947200","MEAN_MOTION":15.27597497,"ECCENTRICITY":0.00011143,"INCLINATION":42.9912,"RA_OF_ASC_NODE":147.0049,"ARG_OF_PERICENTER":141.2413,"MEAN_ANOMALY":218.8519,"EPHEMERIS_TYPE":0,"CLASSIFICATION_TYPE":"U","NORAD_CAT_ID":66567,"ELEMENT_SET_NO":999,"REV_AT_EPOCH":1362,"BSTAR":0.00098066893,"MEAN_MOTION_DOT":0.00026837,"MEAN_MOTION_DDOT":0},{"OBJECT_NAME":"STARLINK-35803","OBJECT_ID":"2025-268M","EPOCH":"2026-02-09T07:26:54.220992","MEAN_MOTION":15.27600946,"ECCENTRICITY":9.45e-5,"INCLINATION":43.0011,"RA_OF_ASC_NODE":146.9711,"ARG_OF_PERICENTER":206.343,"MEAN_ANOMALY":153.7374,"EPHEMERIS_TYPE":0,"CLASSIFICATION_TYPE":"U","NORAD_CAT_ID":66568,"ELEMENT_SET_NO":999,"REV_AT_EPOCH":1362,"BSTAR":0.0012618,"MEAN_MOTION_DOT":0.00034644,"MEAN_MOTION_DDOT":0},{"OBJECT_NAME":"STARLINK-35835","OBJECT_ID":"2025-268N","EPOCH":"2026-02-09T07:23:12.221376","MEAN_MOTION":15.27642898,"ECCENTRICITY":0.0003681,"INCLINATION":43.001,"RA_OF_ASC_NODE":146.9496,"ARG_OF_PERICENTER":306.4681,"MEAN_ANOMALY":53.5832,"EPHEMERIS_TYPE":0,"CLASSIFICATION_TYPE":"U","NORAD_CAT_ID":66569,"ELEMENT_SET_NO":999,"REV_AT_EPOCH":1362,"BSTAR":0.001261,"MEAN_MOTION_DOT":0.00034672,"MEAN_MOTION_DDOT":0},{"OBJECT_NAME":"STARLINK-35834","OBJECT_ID":"2025-268P","EPOCH":"2026-02-09T07:19:43.226688","MEAN_MOTION":15.276004,"ECCENTRICITY":0.0003201,"INCLINATION":43.0006,"RA_OF_ASC_NODE":147.8021,"ARG_OF_PERICENTER":285.4187,"MEAN_ANOMALY":74.6311,"EPHEMERIS_TYPE":0,"CLASSIFICATION_TYPE":"U","NORAD_CAT_ID":66570,"ELEMENT_SET_NO":999,"REV_AT_EPOCH":1361,"BSTAR":0.0010762,"MEAN_MOTION_DOT":0.00029493,"MEAN_MOTION_DDOT":0},{"OBJECT_NAME":"STARLINK-35836","OBJECT_ID":"2025-268Q","EPOCH":"2026-02-09T18:13:16.766976","MEAN_MOTION":15.27607855,"ECCENTRICITY":0.00012251,"INCLINATION":43.0006,"RA_OF_ASC_NODE":145.1901,"ARG_OF_PERICENTER":299.1689,"MEAN_ANOMALY":60.904,"EPHEMERIS_TYPE":0,"CLASSIFICATION_TYPE":"U","NORAD_CAT_ID":66571,"ELEMENT_SET_NO":999,"REV_AT_EPOCH":1368,"BSTAR":0.0011161088,"MEAN_MOTION_DOT":0.00030604,"MEAN_MOTION_DDOT":0},{"OBJECT_NAME":"STARLINK-35870","OBJECT_ID":"2025-268R","EPOCH":"2026-02-09T18:04:00.033024","MEAN_MOTION":15.27629236,"ECCENTRICITY":0.00015731,"INCLINATION":43.0028,"RA_OF_ASC_NODE":145.1421,"ARG_OF_PERICENTER":287.6465,"MEAN_ANOMALY":72.4215,"EPHEMERIS_TYPE":0,"CLASSIFICATION_TYPE":"U","NORAD_CAT_ID":66572,"ELEMENT_SET_NO":999,"REV_AT_EPOCH":1368,"BSTAR":0.00090751677,"MEAN_MOTION_DOT":0.00024832,"MEAN_MOTION_DDOT":0},{"OBJECT_NAME":"STARLINK-35650","OBJECT_ID":"2025-268S","EPOCH":"2026-02-09T14:50:08.129760","MEAN_MOTION":15.27599552,"ECCENTRICITY":0.00015272,"INCLINATION":43.0001,"RA_OF_ASC_NODE":145.8452,"ARG_OF_PERICENTER":242.82,"MEAN_ANOMALY":117.2496,"EPHEMERIS_TYPE":0,"CLASSIFICATION_TYPE":"U","NORAD_CAT_ID":66573,"ELEMENT_SET_NO":999,"REV_AT_EPOCH":1366,"BSTAR":0.00081912899,"MEAN_MOTION_DOT":0.0002236,"MEAN_MOTION_DDOT":0},{"OBJECT_NAME":"STARLINK-35812","OBJECT_ID":"2025-268T","EPOCH":"2026-02-09T14:44:35.018016","MEAN_MOTION":15.27589079,"ECCENTRICITY":0.00014669,"INCLINATION":43.0053,"RA_OF_ASC_NODE":145.8181,"ARG_OF_PERICENTER":259.9992,"MEAN_ANOMALY":100.0695,"EPHEMERIS_TYPE":0,"CLASSIFICATION_TYPE":"U","NORAD_CAT_ID":66574,"ELEMENT_SET_NO":999,"REV_AT_EPOCH":1366,"BSTAR":0.00090658589,"MEAN_MOTION_DOT":0.00024776,"MEAN_MOTION_DDOT":0},{"OBJECT_NAME":"STARLINK-35810","OBJECT_ID":"2025-268U","EPOCH":"2026-02-09T14:39:03.290400","MEAN_MOTION":15.27598935,"ECCENTRICITY":0.00033546,"INCLINATION":43.0031,"RA_OF_ASC_NODE":145.79,"ARG_OF_PERICENTER":12.6246,"MEAN_ANOMALY":347.4689,"EPHEMERIS_TYPE":0,"CLASSIFICATION_TYPE":"U","NORAD_CAT_ID":66575,"ELEMENT_SET_NO":999,"REV_AT_EPOCH":1366,"BSTAR":0.00079947039,"MEAN_MOTION_DOT":0.00021817,"MEAN_MOTION_DDOT":0},{"OBJECT_NAME":"STARLINK-35814","OBJECT_ID":"2025-268V","EPOCH":"2026-02-09T14:33:29.124576","MEAN_MOTION":15.27599659,"ECCENTRICITY":0.0001803,"INCLINATION":43.0028,"RA_OF_ASC_NODE":145.7597,"ARG_OF_PERICENTER":289.0667,"MEAN_ANOMALY":70.9989,"EPHEMERIS_TYPE":0,"CLASSIFICATION_TYPE":"U","NORAD_CAT_ID":66576,"ELEMENT_SET_NO":999,"REV_AT_EPOCH":1366,"BSTAR":0.0010673,"MEAN_MOTION_DOT":0.00029242,"MEAN_MOTION_DDOT":0},{"OBJECT_NAME":"STARLINK-35815","OBJECT_ID":"2025-268W","EPOCH":"2026-02-09T08:07:37.018560","MEAN_MOTION":15.27606674,"ECCENTRICITY":0.00030158,"INCLINATION":43.0008,"RA_OF_ASC_NODE":147.1883,"ARG_OF_PERICENTER":294.0548,"MEAN_ANOMALY":65.9988,"EPHEMERIS_TYPE":0,"CLASSIFICATION_TYPE":"U","NORAD_CAT_ID":66577,"ELEMENT_SET_NO":999,"REV_AT_EPOCH":1362,"BSTAR":0.0015277598,"MEAN_MOTION_DOT":0.00042056,"MEAN_MOTION_DDOT":0},{"OBJECT_NAME":"STARLINK-35743","OBJECT_ID":"2025-268X","EPOCH":"2026-02-09T14:18:40.630176","MEAN_MOTION":15.27609709,"ECCENTRICITY":0.0002962,"INCLINATION":43.0064,"RA_OF_ASC_NODE":145.6856,"ARG_OF_PERICENTER":289.8672,"MEAN_ANOMALY":70.186,"EPHEMERIS_TYPE":0,"CLASSIFICATION_TYPE":"U","NORAD_CAT_ID":66578,"ELEMENT_SET_NO":999,"REV_AT_EPOCH":1366,"BSTAR":0.0011928,"MEAN_MOTION_DOT":0.0003274,"MEAN_MOTION_DDOT":0},{"OBJECT_NAME":"STARLINK-35868","OBJECT_ID":"2025-268Y","EPOCH":"2026-02-09T14:13:07.680864","MEAN_MOTION":15.27611995,"ECCENTRICITY":0.0003601,"INCLINATION":43.0052,"RA_OF_ASC_NODE":145.6616,"ARG_OF_PERICENTER":292.1449,"MEAN_ANOMALY":67.902,"EPHEMERIS_TYPE":0,"CLASSIFICATION_TYPE":"U","NORAD_CAT_ID":66579,"ELEMENT_SET_NO":999,"REV_AT_EPOCH":1366,"BSTAR":0.0013671,"MEAN_MOTION_DOT":0.00037591,"MEAN_MOTION_DDOT":0},{"OBJECT_NAME":"STARLINK-35872","OBJECT_ID":"2025-268Z","EPOCH":"2026-02-09T14:07:36.946848","MEAN_MOTION":15.27585736,"ECCENTRICITY":7.03e-5,"INCLINATION":42.9941,"RA_OF_ASC_NODE":145.6214,"ARG_OF_PERICENTER":131.243,"MEAN_ANOMALY":228.8482,"EPHEMERIS_TYPE":0,"CLASSIFICATION_TYPE":"U","NORAD_CAT_ID":66580,"ELEMENT_SET_NO":999,"REV_AT_EPOCH":1366,"BSTAR":0.0013578,"MEAN_MOTION_DOT":0.00037299,"MEAN_MOTION_DDOT":0},{"OBJECT_NAME":"STARLINK-35744","OBJECT_ID":"2025-268AA","EPOCH":"2026-02-09T14:02:02.157216","MEAN_MOTION":15.27595893,"ECCENTRICITY":0.0001767,"INCLINATION":43.0006,"RA_OF_ASC_NODE":145.5932,"ARG_OF_PERICENTER":286.475,"MEAN_ANOMALY":73.5908,"EPHEMERIS_TYPE":0,"CLASSIFICATION_TYPE":"U","NORAD_CAT_ID":66581,"ELEMENT_SET_NO":999,"REV_AT_EPOCH":1366,"BSTAR":0.00095666,"MEAN_MOTION_DOT":0.0002617,"MEAN_MOTION_DDOT":0},{"OBJECT_NAME":"STARLINK-35746","OBJECT_ID":"2025-268AB","EPOCH":"2026-02-09T18:35:15.020160","MEAN_MOTION":15.27659375,"ECCENTRICITY":0.00011908,"INCLINATION":42.9977,"RA_OF_ASC_NODE":144.4328,"ARG_OF_PERICENTER":274.5098,"MEAN_ANOMALY":85.5617,"EPHEMERIS_TYPE":0,"CLASSIFICATION_TYPE":"U","NORAD_CAT_ID":66582,"ELEMENT_SET_NO":999,"REV_AT_EPOCH":1369,"BSTAR":0.00090124047,"MEAN_MOTION_DOT":0.00024681,"MEAN_MOTION_DDOT":0},{"OBJECT_NAME":"STARLINK-35941","OBJECT_ID":"2025-268AC","EPOCH":"2026-02-09T13:47:13.579008","MEAN_MOTION":15.27617028,"ECCENTRICITY":0.0002579,"INCLINATION":43.0031,"RA_OF_ASC_NODE":145.5161,"ARG_OF_PERICENTER":297.175,"MEAN_ANOMALY":62.8839,"EPHEMERIS_TYPE":0,"CLASSIFICATION_TYPE":"U","NORAD_CAT_ID":66583,"ELEMENT_SET_NO":999,"REV_AT_EPOCH":1366,"BSTAR":0.00079117,"MEAN_MOTION_DOT":0.00021598,"MEAN_MOTION_DDOT":0}]
